STARLINK-3389           
1 51124U 22005W   25265.90834373  .00003396  00000+0  23131-3 0  9992
2 51124  53.2182 332.3235 0001266  86.7825 273.3312 15.08850446203410
STARLINK-3387           
1 51125U 22005X   25265.50082529  .00000515  00000+0  50440-4 0  9991
2 51125  53.2197 334.1657 0001506  94.6055 265.5109 15.08837964203333
STARLINK-3386           
1 51126U 22005Y   25265.90560686  .00004345  00000+0  29085-3 0  9996
2 51126  53.2181 332.3453 0001549  79.3588 280.7578 15.08850945203411
STARLINK-3370           
1 51127U 22005Z   25265.50450900 -.00001107  00000+0 -51454-4 0  9991
2 51127  53.2196 334.1490 0001260  97.4671 262.6465 15.08835264203346
STARLINK-3400           
1 51128U 22005AA  25265.88257726  .00001513  00000+0  11308-3 0  9996
2 51128  53.2189 332.4390 0001362  92.6279 267.4869 15.08848337203394
STARLINK-3396           
1 51129U 22005AB  25265.90929810  .00000835  00000+0  70557-4 0  9998
2 51129  53.2189 332.3184 0001415  83.1362 276.9791 15.08845834203402
STARLINK-3395           
1 51130U 22005AC  25265.49618776  .00000608  00000+0  56316-4 0  9995
2 51130  53.2179 334.1750 0001339  93.8291 266.2855 15.08835962203332
STARLINK-3388           
1 51131U 22005AD  25265.48882925  .00000180  00000+0  29408-4 0  9991
2 51131  53.2192 334.2086 0000978  88.8547 271.2557 15.08834999203331
STARLINK-3393           
1 51132U 22005AE  25265.49251195 -.00000308  00000+0 -12853-5 0  9993
2 51132  53.2201 334.1937 0001360  98.7771 261.3375 15.08832013203335
STARLINK-3356           
1 51133U 22005AF  25265.48146704 -.00000258  00000+0  18962-5 0  9992
2 51133  53.2198 334.2394 0001355  95.3539 264.7608 15.08838198203334
STARLINK-3183           
1 51134U 22005AG  25265.45022435  .00000027  00000+0  19807-4 0  9995
2 51134  53.2182 324.3786 0001369  95.2667 264.8481 15.08836453203487
STARLINK-3363           
1 51135U 22005AH  25265.46767174  .00004202  00000+0  28180-3 0  9995
2 51135  53.2186 334.1975 0001385  89.6730 270.4421 15.08860519203338
STARLINK-3253           
1 51136U 22005AJ  25265.45935502  .00000430  00000+0  45064-4 0  9997
2 51136  53.2179 334.1343 0001084  79.0942 281.0173 15.08847795203337
STARLINK-3180           
1 51137U 22005AK  25265.46670139  .00005976  00000+0  39277-3 0  9999
2 51137  53.2183 334.3040 0001147  98.5259 261.5863 15.08885018203346
STARLINK-3177           
1 51138U 22005AL  25265.47407705  .00002981  00000+0  20518-3 0  9999
2 51138  53.2178 334.2724 0001471  99.5710 260.5449 15.08863302203332
STARLINK-3172           
1 51139U 22005AM  25265.46033419  .00001776  00000+0  12958-3 0  9996
2 51139  53.2191 334.3432 0001148  75.7029 284.4091 15.08849438203348
STARLINK-3175           
1 51140U 22005AN  25265.47138093 -.00001315  00000+0 -64530-4 0  9998
2 51140  53.2185 334.2946 0001366 101.2460 258.8686 15.08833914203345
STARLINK-3179           
1 51141U 22005AP  25265.91570333  .00000679  00000+0  60726-4 0  9998
2 51141  53.2182 332.2884 0001522  70.0914 290.0242 15.08843302203419
STARLINK-3369           
1 51142U 22005AQ  25265.43751338  .00041453  00000+0  25177-2 0  9996
2 51142  53.2169 324.3454 0003199  20.2760 339.8359 15.10115683203472
STARLINK-3184           
1 51143U 22005AR  25265.50262731 -.00000566  00000+0 -17492-4 0  9994
2 51143  53.2202 344.1435 0001457  96.2968 263.8191 15.08835767203208
STARLINK-3185           
1 51144U 22005AS  25265.92032748  .00000467  00000+0  47429-4 0  9995
2 51144  53.2187 332.2777 0001407  86.3261 273.7892 15.08846388203411
STARLINK-3354           
1 51146U 22005AU  25265.46401635  .00001826  00000+0  13278-3 0  9995
2 51146  53.2182 334.3271 0001396  90.7788 269.3364 15.08842761203337
STARLINK-3352           
1 51147U 22005AV  25265.50478608  .00018274  00000+0  10728-2 0  9996
2 51147  53.2175 343.4244 0001887 299.7493  60.3312 15.11793852203219
STARLINK-3359           
1 51148U 22005AW  25265.91208324 -.00000157  00000+0  81873-5 0  9992
2 51148  53.2174 342.5109 0001051  82.4096 277.7015 15.08843629203261
STARLINK-3360           
1 51149U 22005AX  25265.54036582 -.00000513  00000+0 -14179-4 0  9998
2 51149  53.2194 343.7930 0001331  84.6533 275.4611 15.08832482203217
STARLINK-3357           
1 51150U 22005AY  25265.47773818 -.00001014  00000+0 -45665-4 0  9993
2 51150  53.2196 333.8703 0001472  98.7238 261.3921 15.08833274203356
STARLINK-3361           
1 51151U 22005AZ  25265.91668981  .00321109  00000+0  18347-2 0  9990
2 51151  53.1945 257.2369 0007245  30.2898 235.7311 15.77411157  5673
STARLINK-3364           
1 51152U 22005BA  25265.91473222  .00000430  00000+0  45107-4 0  9990
2 51152  53.2187 341.9110 0001394  91.7140 268.4012 15.08844176203271
STARLINK-3181           
1 51461U 22010F   25265.85126874  .00004336  00000+0  29010-3 0  9993
2 51461  53.2184 312.5833 0001457  78.0761 282.0395 15.08873105201485
STARLINK-3166           
1 51462U 22010G   25265.51738384  .00001071  00000+0  85399-4 0  9998
2 51462  53.2179 314.0885 0001443  82.2819 277.8337 15.08840832201434
STARLINK-3419           
1 51463U 22010H   25265.42442795 -.00000864  00000+0 -36226-4 0  9993
2 51463  53.2182 314.4965 0001124  95.0361 265.0759 15.08834342201113
STARLINK-3189           
1 51464U 22010J   25265.44283048  .00001455  00000+0  10946-3 0  9995
2 51464  53.2177 314.4145 0001268  89.2021 270.9117 15.08839067201926
STARLINK-3401           
1 51465U 22010K   25265.83658043  .00002784  00000+0  19296-3 0  9993
2 51465  53.2181 312.6462 0001499 101.8655 258.2505 15.08837565201981
STARLINK-3178           
1 51467U 22010M   25265.42074092  .00001311  00000+0  10042-3 0  9991
2 51467  53.2177 314.5100 0001307  89.3127 270.8015 15.08844893201113
STARLINK-3174           
1 51468U 22010N   25265.82553726  .00000317  00000+0  38024-4 0  9998
2 51468  53.2172 312.6579 0001307  86.6879 273.4263 15.08840398201178
STARLINK-3182           
1 51469U 22010P   25265.44649749 -.00005460  00000+0 -32507-3 0  9993
2 51469  53.2179 314.3981 0001241 101.8161 258.2970 15.08856661201427
STARLINK-3415           
1 51472U 22010S   25265.42168940 -.00000466  00000+0 -11174-4 0  9993
2 51472  53.2180 314.4400 0001352  87.8832 272.2315 15.08842886201424
STARLINK-3528           
1 51714U 22016A   25265.56061655 -.00000464  00000+0 -11085-4 0  9997
2 51714  53.2189   3.8630 0001279  87.9747 272.1392 15.08841920198045
STARLINK-3533           
1 51715U 22016B   25265.55325667  .00000003  00000+0  18306-4 0  9993
2 51715  53.2193   3.9284 0001345  84.2104 275.9042 15.08844342199177
STARLINK-3543           
1 51716U 22016C   25265.55966422 -.00000135  00000+0  96051-5 0  9995
2 51716  53.2201   3.8871 0001299  97.2423 262.8717 15.08840559198040
STARLINK-3445           
1 51717U 22016D   25265.56431272  .00000457  00000+0  46805-4 0  9994
2 51717  53.2187   3.9514 0001194  90.0724 270.0405 15.08841175198048
STARLINK-3546           
1 51718U 22016E   25265.54125568  .00001206  00000+0  93817-4 0  9999
2 51718  53.2178   3.9688 0001265  82.2905 277.8231 15.08849393199160
STARLINK-3540           
1 51719U 22016F   25265.55600878  .00000419  00000+0  44401-4 0  9993
2 51719  53.2196   3.9821 0001404  97.2278 262.8874 15.08836113198043
STARLINK-3526           
1 51720U 22016G   25265.53486257 -.00000356  00000+0 -42842-5 0  9996
2 51720  53.2179   3.9680 0001353  91.6915 268.4232 15.08837889198038
STARLINK-3524           
1 51721U 22016H   25265.54590081 -.00000572  00000+0 -17849-4 0  9997
2 51721  53.2188   3.9573 0001336  96.9483 263.1662 15.08842626198044
STARLINK-3535           
1 51722U 22016J   25265.53022064  .00003297  00000+0  22501-3 0  9993
2 51722  53.2189   4.0178 0000755 104.2388 255.8688 15.08858906198033
STARLINK-3529           
1 51724U 22016L   25265.52286913 -.00000511  00000+0 -13992-4 0  9992
2 51724  53.2199   4.0521 0001396  88.7305 271.3847 15.08833901198033
STARLINK-3522           
1 51725U 22016M   25265.53390239  .00001722  00000+0  12624-3 0  9994
2 51725  53.2187   4.0042 0000658  71.3090 288.7974 15.08842350198039
STARLINK-3527           
1 51726U 22016N   25265.56427063  .00000700  00000+0  62068-4 0  9997
2 51726  53.2199 353.8658 0001431  87.0098 273.1058 15.08838859198189
STARLINK-3532           
1 51727U 22016P   25265.52654187  .00000693  00000+0  61630-4 0  9998
2 51727  53.2197   4.0357 0001398  89.6654 270.4499 15.08843033198030
STARLINK-3523           
1 51729U 22016R   25265.56794679  .00000633  00000+0  57853-4 0  9991
2 51729  53.2200 353.8497 0001231  70.1362 289.9763 15.08842782198189
STARLINK-3514           
1 51731U 22016T   25265.56058690  .00000361  00000+0  40762-4 0  9999
2 51731  53.2192 353.8826 0001254  91.7070 268.4066 15.08839822198187
STARLINK-3518           
1 51732U 22016U   25265.47962221  .00002094  00000+0  14967-3 0  9996
2 51732  53.2185 354.2501 0001018  92.8420 267.2688 15.08825258199315
STARLINK-3525           
1 51733U 22016V   25265.55418199  .00000863  00000+0  72313-4 0  9998
2 51733  53.2192 353.9246 0001427 101.1814 258.9339 15.08838824198188
STARLINK-3450           
1 51734U 22016W   25265.53481964  .00000729  00000+0  63895-4 0  9993
2 51734  53.2190 353.9995 0001317  93.5415 266.5728 15.08842633198176
STARLINK-3517           
1 51735U 22016X   25265.54218827  .00001385  00000+0  10513-3 0  9998
2 51735  53.2189 353.9665 0001352  93.9465 266.1681 15.08837089198181
STARLINK-3447           
1 51736U 22016Y   25265.53579103  .00002939  00000+0  20265-3 0  9996
2 51736  53.2184 354.0827 0001237  79.9175 280.1957 15.08844545198179
STARLINK-3509           
1 51737U 22016Z   25265.53850615  .00000236  00000+0  32892-4 0  9995
2 51737  53.2190 353.9817 0001260  90.1270 269.9866 15.08838361198174
STARLINK-3515           
1 51738U 22016AA  25265.52009264 -.00005176  00000+0 -30706-3 0  9992
2 51738  53.2189 354.0637 0001238  84.8971 275.2162 15.08871922198177
